{"fetched_at":"2026-03-29T02:12:04Z","count":15717,"tles":[{"name":"STARLINK-34858","line1":"1 65023U 25161J   26087.60157853  .00031146  00000+0  10591-2 0  9991","line2":"2 65023  53.1594 206.4799 0001155  80.5110 279.6021 15.30207636 38213","category":"Starlink"}]}