{
  "norad_id": 65023,
  "name": "STARLINK-34858",
  "history": [
    {
      "epoch": "2026-03-28T14:26:16.384128",
      "apogee_km": 475.9838293251951,
      "perigee_km": 474.4007102638734,
      "latitude_deg": -19.371181877790143,
      "longitude_deg": 20.051537920255214,
      "semi_major_axis_km": 6853.329269794534,
      "eccentricity": 0.0001155,
      "inclination_deg": 53.1594,
      "raan_deg": 206.4799,
      "arg_perigee_deg": 80.511,
      "mean_anomaly_deg": 279.6021,
      "mean_motion_rev_day": 15.30207636
    }
  ]
}